[{"OBJECT_NAME":"STARLINK-5653","OBJECT_ID":"2023-013Q","EPOCH":"2026-03-08T23:49:27.148512","MEAN_MOTION":15.02537622,"ECCENTRICITY":0.00010746,"INCLINATION":43.0027,"RA_OF_ASC_NODE":291.1739,"ARG_OF_PERICENTER":271.7635,"MEAN_ANOMALY":88.3084,"EPHEMERIS_TYPE":0,"CLASSIFICATION_TYPE":"U","NORAD_CAT_ID":55345,"ELEMENT_SET_NO":999,"REV_AT_EPOCH":17175,"BSTAR":2.7880003e-5,"MEAN_MOTION_DOT":1.73e-6,"MEAN_MOTION_DDOT":0},{"OBJECT_NAME":"FTV 3502","OBJECT_ID":"1962-039A","EPOCH":"2026-03-09T21:41:26.705184","MEAN_MOTION":14.91961609,"ECCENTRICITY":0.00806549,"INCLINATION":98.4622,"RA_OF_ASC_NODE":145.9901,"ARG_OF_PERICENTER":91.4356,"MEAN_ANOMALY":269.6102,"EPHEMERIS_TYPE":0,"CLASSIFICATION_TYPE":"U","NORAD_CAT_ID":369,"ELEMENT_SET_NO":999,"REV_AT_EPOCH":40080,"BSTAR":0.00025514942,"MEAN_MOTION_DOT":2.681e-5,"MEAN_MOTION_DDOT":0}]
